[{"OBJECT_NAME":"STARLINK-33531","OBJECT_ID":"2025-065A","EPOCH":"2026-03-05T04:42:24.297984","MEAN_MOTION":15.27570086,"ECCENTRICITY":0.00016389,"INCLINATION":43.0021,"RA_OF_ASC_NODE":132.3816,"ARG_OF_PERICENTER":289.0651,"MEAN_ANOMALY":71.0023,"EPHEMERIS_TYPE":0,"CLASSIFICATION_TYPE":"U","NORAD_CAT_ID":63399,"ELEMENT_SET_NO":999,"REV_AT_EPOCH":5215,"BSTAR":0.0011938215,"MEAN_MOTION_DOT":0.00032725,"MEAN_MOTION_DDOT":0},{"OBJECT_NAME":"STARLINK-33652","OBJECT_ID":"2025-065B","EPOCH":"2026-03-05T05:39:33.000768","MEAN_MOTION":15.27598078,"ECCENTRICITY":0.0003537,"INCLINATION":43.0024,"RA_OF_ASC_NODE":131.8143,"ARG_OF_PERICENTER":303.7773,"MEAN_ANOMALY":56.2742,"EPHEMERIS_TYPE":0,"CLASSIFICATION_TYPE":"U","NORAD_CAT_ID":63400,"ELEMENT_SET_NO":999,"REV_AT_EPOCH":5216,"BSTAR":0.00094435361,"MEAN_MOTION_DOT":0.00025833,"MEAN_MOTION_DDOT":0},{"OBJECT_NAME":"STARLINK-33707","OBJECT_ID":"2025-065C","EPOCH":"2026-03-05T04:36:50.281632","MEAN_MOTION":15.27599932,"ECCENTRICITY":0.00012588,"INCLINATION":42.9992,"RA_OF_ASC_NODE":132.3529,"ARG_OF_PERICENTER":267.0347,"MEAN_ANOMALY":93.036,"EPHEMERIS_TYPE":0,"CLASSIFICATION_TYPE":"U","NORAD_CAT_ID":63401,"ELEMENT_SET_NO":999,"REV_AT_EPOCH":5215,"BSTAR":0.0012539874,"MEAN_MOTION_DOT":0.00034427,"MEAN_MOTION_DDOT":0},{"OBJECT_NAME":"STARLINK-33668","OBJECT_ID":"2025-065D","EPOCH":"2026-03-05T05:02:44.610720","MEAN_MOTION":15.27592731,"ECCENTRICITY":7.923e-5,"INCLINATION":42.9933,"RA_OF_ASC_NODE":132.4809,"ARG_OF_PERICENTER":229.6485,"MEAN_ANOMALY":130.4297,"EPHEMERIS_TYPE":0,"CLASSIFICATION_TYPE":"U","NORAD_CAT_ID":63402,"ELEMENT_SET_NO":999,"REV_AT_EPOCH":5215,"BSTAR":0.0014386186,"MEAN_MOTION_DOT":0.00039554,"MEAN_MOTION_DDOT":0},{"OBJECT_NAME":"STARLINK-33676","OBJECT_ID":"2025-065E","EPOCH":"2026-03-05T04:34:59.440800","MEAN_MOTION":15.27585776,"ECCENTRICITY":4.865e-5,"INCLINATION":42.9965,"RA_OF_ASC_NODE":132.3378,"ARG_OF_PERICENTER":326.3652,"MEAN_ANOMALY":33.7168,"EPHEMERIS_TYPE":0,"CLASSIFICATION_TYPE":"U","NORAD_CAT_ID":63403,"ELEMENT_SET_NO":999,"REV_AT_EPOCH":5215,"BSTAR":0.0013052628,"MEAN_MOTION_DOT":0.00035837,"MEAN_MOTION_DDOT":0},{"OBJECT_NAME":"STARLINK-33711","OBJECT_ID":"2025-065F","EPOCH":"2026-03-05T05:37:41.539584","MEAN_MOTION":15.27607464,"ECCENTRICITY":0.00015034,"INCLINATION":42.9896,"RA_OF_ASC_NODE":131.7939,"ARG_OF_PERICENTER":164.8739,"MEAN_ANOMALY":195.2157,"EPHEMERIS_TYPE":0,"CLASSIFICATION_TYPE":"U","NORAD_CAT_ID":63404,"ELEMENT_SET_NO":999,"REV_AT_EPOCH":5216,"BSTAR":0.0013708685,"MEAN_MOTION_DOT":0.00037686,"MEAN_MOTION_DDOT":0},{"OBJECT_NAME":"STARLINK-33708","OBJECT_ID":"2025-065G","EPOCH":"2026-03-05T04:40:32.295072","MEAN_MOTION":15.27591292,"ECCENTRICITY":2.865e-5,"INCLINATION":42.9954,"RA_OF_ASC_NODE":132.3619,"ARG_OF_PERICENTER":291.3688,"MEAN_ANOMALY":68.7133,"EPHEMERIS_TYPE":0,"CLASSIFICATION_TYPE":"U","NORAD_CAT_ID":63405,"ELEMENT_SET_NO":999,"REV_AT_EPOCH":5215,"BSTAR":0.0013666139,"MEAN_MOTION_DOT":0.00037549,"MEAN_MOTION_DDOT":0},{"OBJECT_NAME":"STARLINK-33690","OBJECT_ID":"2025-065H","EPOCH":"2026-03-05T03:56:50.386848","MEAN_MOTION":15.27586489,"ECCENTRICITY":0.00010365,"INCLINATION":43.0002,"RA_OF_ASC_NODE":128.6785,"ARG_OF_PERICENTER":233.6956,"MEAN_ANOMALY":126.38,"EPHEMERIS_TYPE":0,"CLASSIFICATION_TYPE":"U","NORAD_CAT_ID":63406,"ELEMENT_SET_NO":999,"REV_AT_EPOCH":5219,"BSTAR":0.00063129866,"MEAN_MOTION_DOT":0.00017154,"MEAN_MOTION_DDOT":0},{"OBJECT_NAME":"STARLINK-33694","OBJECT_ID":"2025-065J","EPOCH":"2026-03-05T04:29:25.699200","MEAN_MOTION":15.27620233,"ECCENTRICITY":0.00013818,"INCLINATION":43.0009,"RA_OF_ASC_NODE":132.2993,"ARG_OF_PERICENTER":202.0931,"MEAN_ANOMALY":157.9861,"EPHEMERIS_TYPE":0,"CLASSIFICATION_TYPE":"U","NORAD_CAT_ID":63407,"ELEMENT_SET_NO":999,"REV_AT_EPOCH":5215,"BSTAR":0.0017286171,"MEAN_MOTION_DOT":0.00047672,"MEAN_MOTION_DDOT":0},{"OBJECT_NAME":"STARLINK-33692","OBJECT_ID":"2025-065K","EPOCH":"2026-03-05T05:31:39.129600","MEAN_MOTION":15.27567268,"ECCENTRICITY":5.702e-5,"INCLINATION":42.9964,"RA_OF_ASC_NODE":136.0879,"ARG_OF_PERICENTER":244.3261,"MEAN_ANOMALY":115.7532,"EPHEMERIS_TYPE":0,"CLASSIFICATION_TYPE":"U","NORAD_CAT_ID":63408,"ELEMENT_SET_NO":999,"REV_AT_EPOCH":5211,"BSTAR":0.0010782577,"MEAN_MOTION_DOT":0.00029517,"MEAN_MOTION_DDOT":0},{"OBJECT_NAME":"STARLINK-33693","OBJECT_ID":"2025-065L","EPOCH":"2026-03-05T04:55:19.048512","MEAN_MOTION":15.27621773,"ECCENTRICITY":8.767e-5,"INCLINATION":42.9935,"RA_OF_ASC_NODE":132.4344,"ARG_OF_PERICENTER":237.8712,"MEAN_ANOMALY":122.2055,"EPHEMERIS_TYPE":0,"CLASSIFICATION_TYPE":"U","NORAD_CAT_ID":63409,"ELEMENT_SET_NO":999,"REV_AT_EPOCH":5215,"BSTAR":0.0012023881,"MEAN_MOTION_DOT":0.00033016,"MEAN_MOTION_DDOT":0},{"OBJECT_NAME":"STARLINK-33677","OBJECT_ID":"2025-065M","EPOCH":"2026-03-05T04:44:14.208288","MEAN_MOTION":15.2761573,"ECCENTRICITY":0.00022255,"INCLINATION":42.9979,"RA_OF_ASC_NODE":132.375,"ARG_OF_PERICENTER":296.9527,"MEAN_ANOMALY":63.1097,"EPHEMERIS_TYPE":0,"CLASSIFICATION_TYPE":"U","NORAD_CAT_ID":63410,"ELEMENT_SET_NO":999,"REV_AT_EPOCH":5215,"BSTAR":0.0014843107,"MEAN_MOTION_DOT":0.00040855,"MEAN_MOTION_DDOT":0},{"OBJECT_NAME":"STARLINK-33647","OBJECT_ID":"2025-065N","EPOCH":"2026-03-05T05:53:09.681216","MEAN_MOTION":15.27551158,"ECCENTRICITY":0.00011485,"INCLINATION":42.9984,"RA_OF_ASC_NODE":139.6709,"ARG_OF_PERICENTER":251.7036,"MEAN_ANOMALY":108.369,"EPHEMERIS_TYPE":0,"CLASSIFICATION_TYPE":"U","NORAD_CAT_ID":63411,"ELEMENT_SET_NO":999,"REV_AT_EPOCH":5207,"BSTAR":0.00092275472,"MEAN_MOTION_DOT":0.00025195,"MEAN_MOTION_DDOT":0},{"OBJECT_NAME":"STARLINK-33645","OBJECT_ID":"2025-065P","EPOCH":"2026-03-05T04:32:25.544256","MEAN_MOTION":15.27586721,"ECCENTRICITY":8.082e-5,"INCLINATION":42.9994,"RA_OF_ASC_NODE":135.7082,"ARG_OF_PERICENTER":266.1146,"MEAN_ANOMALY":93.9613,"EPHEMERIS_TYPE":0,"CLASSIFICATION_TYPE":"U","NORAD_CAT_ID":63412,"ELEMENT_SET_NO":999,"REV_AT_EPOCH":5211,"BSTAR":0.00068621737,"MEAN_MOTION_DOT":0.00018673,"MEAN_MOTION_DDOT":0},{"OBJECT_NAME":"STARLINK-33670","OBJECT_ID":"2025-065Q","EPOCH":"2026-03-05T04:38:40.905600","MEAN_MOTION":15.27586758,"ECCENTRICITY":2.459e-5,"INCLINATION":42.9949,"RA_OF_ASC_NODE":132.3139,"ARG_OF_PERICENTER":41.2064,"MEAN_ANOMALY":318.8806,"EPHEMERIS_TYPE":0,"CLASSIFICATION_TYPE":"U","NORAD_CAT_ID":63413,"ELEMENT_SET_NO":999,"REV_AT_EPOCH":5215,"BSTAR":0.001271337,"MEAN_MOTION_DOT":0.00034895,"MEAN_MOTION_DDOT":0},{"OBJECT_NAME":"STARLINK-33644","OBJECT_ID":"2025-065R","EPOCH":"2026-03-05T04:11:08.052000","MEAN_MOTION":15.27590811,"ECCENTRICITY":5.949e-5,"INCLINATION":42.9973,"RA_OF_ASC_NODE":133.0216,"ARG_OF_PERICENTER":101.5747,"MEAN_ANOMALY":258.5172,"EPHEMERIS_TYPE":0,"CLASSIFICATION_TYPE":"U","NORAD_CAT_ID":63414,"ELEMENT_SET_NO":999,"REV_AT_EPOCH":5214,"BSTAR":0.0010494328,"MEAN_MOTION_DOT":0.00028738,"MEAN_MOTION_DDOT":0},{"OBJECT_NAME":"STARLINK-33664","OBJECT_ID":"2025-065S","EPOCH":"2026-03-05T04:49:47.753760","MEAN_MOTION":15.27605484,"ECCENTRICITY":7.321e-5,"INCLINATION":42.9987,"RA_OF_ASC_NODE":132.3666,"ARG_OF_PERICENTER":247.9513,"MEAN_ANOMALY":112.1261,"EPHEMERIS_TYPE":0,"CLASSIFICATION_TYPE":"U","NORAD_CAT_ID":63415,"ELEMENT_SET_NO":999,"REV_AT_EPOCH":5215,"BSTAR":0.0014829438,"MEAN_MOTION_DOT":0.00040803,"MEAN_MOTION_DDOT":0},{"OBJECT_NAME":"STARLINK-33649","OBJECT_ID":"2025-065T","EPOCH":"2026-03-05T04:31:16.690368","MEAN_MOTION":15.27597637,"ECCENTRICITY":0.00011303,"INCLINATION":43.0015,"RA_OF_ASC_NODE":132.256,"ARG_OF_PERICENTER":246.5278,"MEAN_ANOMALY":113.5455,"EPHEMERIS_TYPE":0,"CLASSIFICATION_TYPE":"U","NORAD_CAT_ID":63416,"ELEMENT_SET_NO":999,"REV_AT_EPOCH":5215,"BSTAR":0.0011715786,"MEAN_MOTION_DOT":0.00032135,"MEAN_MOTION_DDOT":0},{"OBJECT_NAME":"STARLINK-33535","OBJECT_ID":"2025-065U","EPOCH":"2026-03-05T04:47:55.317984","MEAN_MOTION":15.27605766,"ECCENTRICITY":0.00023295,"INCLINATION":42.9992,"RA_OF_ASC_NODE":132.3304,"ARG_OF_PERICENTER":143.0617,"MEAN_ANOMALY":217.0395,"EPHEMERIS_TYPE":0,"CLASSIFICATION_TYPE":"U","NORAD_CAT_ID":63417,"ELEMENT_SET_NO":999,"REV_AT_EPOCH":5215,"BSTAR":0.0012474434,"MEAN_MOTION_DOT":0.00034253,"MEAN_MOTION_DDOT":0},{"OBJECT_NAME":"STARLINK-33703","OBJECT_ID":"2025-065V","EPOCH":"2026-03-05T05:17:31.644096","MEAN_MOTION":15.27591087,"ECCENTRICITY":0.00047475,"INCLINATION":43.0079,"RA_OF_ASC_NODE":132.5123,"ARG_OF_PERICENTER":295.341,"MEAN_ANOMALY":64.695,"EPHEMERIS_TYPE":0,"CLASSIFICATION_TYPE":"U","NORAD_CAT_ID":63418,"ELEMENT_SET_NO":999,"REV_AT_EPOCH":5215,"BSTAR":0.00014420985,"MEAN_MOTION_DOT":3.709e-5,"MEAN_MOTION_DDOT":0},{"OBJECT_NAME":"STARLINK-33709","OBJECT_ID":"2025-065W","EPOCH":"2026-03-05T05:23:04.797312","MEAN_MOTION":15.27601245,"ECCENTRICITY":0.00064144,"INCLINATION":42.9859,"RA_OF_ASC_NODE":132.521,"ARG_OF_PERICENTER":140.9313,"MEAN_ANOMALY":219.2002,"EPHEMERIS_TYPE":0,"CLASSIFICATION_TYPE":"U","NORAD_CAT_ID":63419,"ELEMENT_SET_NO":999,"REV_AT_EPOCH":5215,"BSTAR":0.00117469,"MEAN_MOTION_DOT":0.00032241,"MEAN_MOTION_DDOT":0},{"OBJECT_NAME":"STARLINK-33698","OBJECT_ID":"2025-065X","EPOCH":"2026-03-05T04:20:10.657824","MEAN_MOTION":15.276025,"ECCENTRICITY":3.064e-5,"INCLINATION":42.9973,"RA_OF_ASC_NODE":132.1892,"ARG_OF_PERICENTER":257.9817,"MEAN_ANOMALY":102.1,"EPHEMERIS_TYPE":0,"CLASSIFICATION_TYPE":"U","NORAD_CAT_ID":63420,"ELEMENT_SET_NO":999,"REV_AT_EPOCH":5215,"BSTAR":0.0014356985,"MEAN_MOTION_DOT":0.00039484,"MEAN_MOTION_DDOT":0},{"OBJECT_NAME":"STARLINK-33606","OBJECT_ID":"2025-065Y","EPOCH":"2026-03-05T04:46:04.245600","MEAN_MOTION":15.27552991,"ECCENTRICITY":4.65e-5,"INCLINATION":42.9935,"RA_OF_ASC_NODE":132.3308,"ARG_OF_PERICENTER":115.6792,"MEAN_ANOMALY":244.4108,"EPHEMERIS_TYPE":0,"CLASSIFICATION_TYPE":"U","NORAD_CAT_ID":63421,"ELEMENT_SET_NO":999,"REV_AT_EPOCH":5215,"BSTAR":-0.00082016812,"MEAN_MOTION_DOT":-0.00022743,"MEAN_MOTION_DDOT":0}]
